{
  "type": "FeatureCollection",
  "features": [
    {
      "type": "Feature",
      "properties": {
        "nombre": "Distrito 10",
        "descripcion": "Pedrito"
      },
      "geometry": {
        "type": "Polygon",
        "coordinates": [
          [
            [
              -65.19178934402332,
              -26.82046847985802
            ],
            [
              -65.19785163205124,
              -26.84545966929109
            ],
            [
              -65.23524295014755,
              -26.837584678886216
            ],
            [
              -65.22894750134287,
              -26.813066417568358
            ],
            [
              -65.19177218294323,
              -26.820519735150967
            ]
          ]
        ]
      }
    },
    {
      "type": "Feature",
      "properties": {
        "nombre": "Distrito 11"
      },
      "geometry": {
        "type": "Polygon",
        "coordinates": [
          [
            [
              -65.19161458685802,
              -26.820446839386207
            ],
            [
              -65.19779303344663,
              -26.845872357507474
            ],
            [
              -65.18211079946923,
              -26.850163215982043
            ],
            [
              -65.16485013166958,
              -26.82359369898181
            ],
            [
              -65.17336313190391,
              -26.82390312569828
            ],
            [
              -65.19148719652694,
              -26.82062473374382
            ]
          ]
        ]
      }
    },
    {
      "type": "Feature",
      "properties": {
        "nombre": "Distrito 19"
      },
      "geometry": {
        "type": "Polygon",
        "coordinates": [
          [
            [-65.2221135, -26.8577649],
            [-65.2232936, -26.8572289],
            [-65.2337221, -26.8656132],
            [-65.2302459, -26.8682165],
            [-65.2303747, -26.8744564],
            [-65.2178005, -26.8765235],
            [-65.2068785, -26.8636033],
            [-65.2194527, -26.8609808],
            [-65.219045, -26.8589134],
            [-65.2221135, -26.8577649],
            [-65.2221135, -26.8577649]
          ]
        ]
      }
    },
    {
      "type": "Feature",
      "properties": {
        "nombre": "Distrito 20"
      },
      "geometry": {
        "type": "Polygon",
        "coordinates": [
          [
            [
              -65.2142667,
              -26.8735021
            ],
            [
              -65.2177429,
              -26.8768806
            ],
            [
              -65.230832,
              -26.8744689
            ],
            [
              -65.2308105,
              -26.8842874
            ],
            [
              -65.2295414,
              -26.8881747
            ],
            [
              -65.2252587,
              -26.8926599
            ],
            [
              -65.2222888,
              -26.8927677
            ],
            [
              -65.2204005,
              -26.891696
            ],
            [
              -65.2124643,
              -26.8739615
            ],
            [
              -65.2142667,
              -26.8735021
            ]
          ]
        ]
      }
    },
    {
      "type": "Feature",
      "properties": {
        "nombre": "Distrito 16"
      },
      "geometry": {
        "type": "Polygon",
        "coordinates": [
          [
            [
              -65.2138483,
              -26.8735034
            ],
            [
              -65.2067922,
              -26.8756052
            ],
            [
              -65.2053331,
              -26.8742654
            ],
            [
              -65.2018141,
              -26.87461
            ],
            [
              -65.1867937,
              -26.8593733
            ],
            [
              -65.1822769,
              -26.8530656
            ],
            [
              -65.1830171,
              -26.8499643
            ],
            [
              -65.1937459,
              -26.8469298
            ],
            [
              -65.1943467,
              -26.8493803
            ],
            [
              -65.1968359,
              -26.848806
            ],
            [
              -65.198295,
              -26.8472744
            ],
            [
              -65.1974617,
              -26.8457915
            ],
            [
              -65.1990245,
              -26.8452834
            ],
            [
              -65.2034834,
              -26.8609384
            ],
            [
              -65.2055649,
              -26.8617998
            ],
            [
              -65.2138483,
              -26.8735034
            ],
            [
              -65.2138483,
              -26.8735034
            ]
          ]
        ]
      }
    },
    {
      "type": "Feature",
      "properties": {
        "nombre": "Distrito 14"
      },
      "geometry": {
        "type": "Polygon",
        "coordinates": [
          [
            [
              -65.2184012,
              -26.8412174
            ],
            [
              -65.2353493,
              -26.8378354
            ],
            [
              -65.2416829,
              -26.8590216
            ],
            [
              -65.2338508,
              -26.8652237
            ],
            [-65.2240875, -26.8577773],
            [-65.222328, -26.8562267],
            [-65.2184012, -26.8412174],
            [-65.2184012, -26.8412174]
          ]
        ]
      }
    },
    {
      "type": "Feature",
      "properties": {
        "nombre": "Distrito 15"
      },
      "geometry": {
        "type": "Polygon",
        "coordinates": [
          [
            [-65.2184066, -26.8412126],
            [-65.2217329, -26.8543066],
            [-65.2231277, -26.857159],
            [-65.2189005, -26.859035],
            [-65.2194369, -26.8608536],
            [-65.20697, -26.8634569],
            [-65.2056182, -26.8615619],
            [-65.2036226, -26.860911],
            [-65.1991894, -26.8454516],
            [-65.2184066, -26.8412126],
            [-65.2184066, -26.8412126]
          ]
        ]
      }
    },
    {
      "type": "Feature",
      "properties": {
        "nombre": "Distrito 18"
      },
      "geometry": {
        "type": "Polygon",
        "coordinates": [
          [
            [-65.2309321, -26.8767556],
            [-65.230264, -26.8686098],
            [-65.2418941, -26.8599576],
            [-65.2425163, -26.861623],
            [-65.2469957, -26.8645733],
            [-65.2721871, -26.8605151],
            [-65.2711223, -26.867147],
            [-65.2600501, -26.8690994],
            [-65.2397083, -26.8728128],
            [-65.2414678, -26.8745737],
            [-65.2316616, -26.8764877],
            [-65.2309321, -26.8767556],
            [-65.2309321, -26.8767556]
          ]
        ]
      }
    },
    {
      "type": "Feature",
      "properties": {
        "nombre": "Distrito 17"
      },
      "geometry": {
        "type": "Polygon",
        "coordinates": [
          [
            [-65.2504071, -26.8496917],
            [-65.2741392, -26.8452884],
            [-65.2820785, -26.8510701],
            [-65.275255, -26.8524101],
            [-65.2714356, -26.8599909],
            [-65.2673588, -26.863035],
            [-65.2464589, -26.8640873],
            [-65.2423819, -26.8614457],
            [-65.241824, -26.8591869],
            [-65.2487334, -26.8529845],
            [-65.2504071, -26.8496917],
            [-65.2504071, -26.8496917]
          ]
        ]
      }
    },
    {
      "type": "Feature",
      "properties": {
        "nombre": "Distrito 12"
      },
      "geometry": {
        "type": "Polygon",
        "coordinates": [
          [
            [-65.2670631, -26.8255458],
            [-65.269325, -26.8297227],
            [-65.2700546, -26.8349308],
            [-65.2690246, -26.8408662],
            [-65.2738741, -26.8451548],
            [-65.2509217, -26.8498448],
            [-65.2530601, -26.8433934],
            [-65.25615, -26.8389133],
            [-65.2585962, -26.8348159],
            [-65.261214, -26.8298759],
            [-65.2663639, -26.8267357],
            [-65.2670631, -26.8255458],
            [-65.2670631, -26.8255458]
          ]
        ]
      }
    },
    {
      "type": "Feature",
      "properties": {
        "nombre": "Distrito 13"
      },
      "geometry": {
        "type": "Polygon",
        "coordinates": [
          [
            [-65.2582796, -26.8345199],
            [-65.252668, -26.843317],
            [-65.2488382, -26.8523634],
            [-65.2416829, -26.8590216],
            [-65.2400835, -26.8515211],
            [-65.2381094, -26.8461606],
            [-65.2353493, -26.8378354],
            [-65.2543705, -26.8341234],
            [-65.2582796, -26.8345199],
            [-65.2582796, -26.8345199]
          ]
        ]
      }
    },
    {
      "type": "Feature",
      "properties": {
        "nombre": "Distrito 9"
      },
      "geometry": {
        "type": "Polygon",
        "coordinates": [
          [
            [-65.2665899, -26.8252595],
            [-65.2610539, -26.8297402],
            [-65.2587364, -26.8337611],
            [-65.2354763, -26.8372459],
            [-65.2293151, -26.8132076],
            [-65.2383141, -26.8111696],
            [-65.2379063, -26.8096756],
            [-65.2481363, -26.8075266],
            [-65.2482222, -26.8081394],
            [-65.2577923, -26.806071],
            [-65.2580927, -26.8071818],
            [-65.2611397, -26.8066456],
            [-65.2621267, -26.8079479],
            [-65.2665899, -26.8252595],
            [-65.2665899, -26.8252595]
          ]
        ]
      }
    },
    {
      "type": "Feature",
      "properties": { "nombre": "Distrito 8" },
      "geometry": {
        "type": "Polygon",
        "coordinates": [
          [
            [-65.1919912, -26.8106607],
            [-65.194143, -26.820197],
            [-65.1727222, -26.8235295],
            [-65.1646112, -26.8236827],
            [-65.161178, -26.8162527],
            [-65.1919912, -26.8106607],
            [-65.1919912, -26.8106607]
          ]
        ]
      }
    },
    {
      "type": "Feature",
      "properties": { "nombre": "Distrito 7" },
      "geometry": {
        "type": "Polygon",
        "coordinates": [
          [
            [-65.191841, -26.8107756],
            [-65.1611568, -26.8160579],
            [-65.1603161, -26.8139231],
            [-65.160874, -26.8118165],
            [-65.1600157, -26.8091737],
            [-65.159844, -26.8048454],
            [-65.1622044, -26.7997125],
            [-65.1625477, -26.7953456],
            [-65.1658951, -26.7927407],
            [-65.1674401, -26.7909785],
            [-65.1699721, -26.7897143],
            [-65.1714312, -26.7895228],
            [-65.1744782, -26.7907103],
            [-65.1772248, -26.7927407],
            [-65.1783406, -26.7936984],
            [-65.1809155, -26.7932004],
            [-65.1820313, -26.7925108],
            [-65.1831471, -26.7927407],
            [-65.1841341, -26.7939665],
            [-65.1854216, -26.7952307],
            [-65.187267, -26.7958819],
            [-65.1879965, -26.7957287],
            [-65.191841, -26.8107756],
            [-65.191841, -26.8107756]
          ]
        ]
      }
    },
    {
      "type": "Feature",
      "properties": { "nombre": "Distrito 6" },
      "geometry": {
        "type": "Polygon",
        "coordinates": [
          [
            [-65.1977068, -26.7946151],
            [-65.2033501, -26.8180952],
            [-65.1943165, -26.8200293],
            [-65.1881467, -26.7956138],
            [-65.1962477, -26.7934659],
            [-65.1956039, -26.7950365],
            [-65.1977068, -26.7946151],
            [-65.1977068, -26.7946151]
          ]
        ]
      }
    },
    {
      "type": "Feature",
      "properties": { "nombre": "Distrito 1" },
      "geometry": {
        "type": "Polygon",
        "coordinates": [
          [
            [-65.2617118, -26.8063396],
            [-65.2580854, -26.8070099],
            [-65.2576582, -26.8061284],
            [-65.2545449, -26.8067418],
            [-65.2483007, -26.8079484],
            [-65.2476999, -26.8075653],
            [-65.2473995, -26.8068376],
            [-65.2448246, -26.7949246],
            [-65.244095, -26.7914961],
            [-65.2433655, -26.7881057],
            [-65.2428719, -26.7857305],
            [-65.2430436, -26.7856156],
            [-65.2446958, -26.7851558],
            [-65.2464124, -26.7847153],
            [-65.2493736, -26.7840257],
            [-65.2498671, -26.7843705],
            [-65.2543732, -26.7894849],
            [-65.2568623, -26.7919366],
            [-65.2575704, -26.7940627],
            [-65.2578065, -26.7944649],
            [-65.2590296, -26.7979509],
            [-65.2607676, -26.8030838],
            [-65.2617118, -26.8063396],
            [-65.2617118, -26.8063396]
          ]
        ]
      }
    },
    {
      "type": "Feature",
      "properties": { "nombre": "Distrito 2" },
      "geometry": {
        "type": "Polygon",
        "coordinates": [
          [
            [-65.2476676, -26.8074499],
            [-65.23774, -26.8096176],
            [-65.2374946, -26.8086809],
            [-65.2366857, -26.8053209],
            [-65.2362995, -26.8040185],
            [-65.2351729, -26.7981291],
            [-65.234969, -26.7973821],
            [-65.2342395, -26.7940973],
            [-65.2338961, -26.7926991],
            [-65.2334133, -26.7903718],
            [-65.2329842, -26.7886096],
            [-65.2326839, -26.7875752],
            [-65.2331773, -26.7874603],
            [-65.2406514, -26.7860735],
            [-65.2425398, -26.7856138],
            [-65.2427543, -26.7863033],
            [-65.2436985, -26.790096],
            [-65.2443422, -26.7934288],
            [-65.2453293, -26.7977958],
            [-65.2468314, -26.8046141],
            [-65.2476676, -26.8074499],
            [-65.2476676, -26.8074499]
          ]
        ]
      }
    },
    {
      "type": "Feature",
      "properties": { "nombre": "Distrito 3" },
      "geometry": {
        "type": "Polygon",
        "coordinates": [
          [
            [-65.2381316, -26.8110929],
            [-65.2348697, -26.8118084],
            [-65.2291327, -26.8131309],
            [-65.2277522, -26.8085655],
            [-65.2266487, -26.8037454],
            [-65.2255812, -26.7997107],
            [-65.224337, -26.7955305],
            [-65.2225165, -26.7901787],
            [-65.2228599, -26.7894125],
            [-65.2241473, -26.7892593],
            [-65.226808, -26.7886463],
            [-65.2296405, -26.78811],
            [-65.2326677, -26.7875565],
            [-65.2327845, -26.788265],
            [-65.233042, -26.7892994],
            [-65.2334907, -26.7914661],
            [-65.2342436, -26.7946242],
            [-65.2346358, -26.7959468],
            [-65.2350988, -26.7988025],
            [-65.2354668, -26.8009064],
            [-65.2363316, -26.8045359],
            [-65.2371404, -26.8076097],
            [-65.2381316, -26.8110929],
            [-65.2381316, -26.8110929]
          ]
        ]
      }
    },
    {
      "type": "Feature",
      "properties": { "nombre": "Distrito 4" },
      "geometry": {
        "type": "Polygon",
        "coordinates": [
          [
            [-65.229181, -26.813265],
            [-65.2277398, -26.8136171],
            [-65.2238864, -26.814107],
            [-65.2213544, -26.8146432],
            [-65.2156896, -26.8156008],
            [-65.2154296, -26.8153672],
            [-65.2147627, -26.8130778],
            [-65.2144289, -26.8117192],
            [-65.2137155, -26.8088597],
            [-65.2131146, -26.8062934],
            [-65.2125138, -26.8033823],
            [-65.2116555, -26.8000881],
            [-65.2110118, -26.7975216],
            [-65.210411, -26.7953764],
            [-65.2108401, -26.7950316],
            [-65.2105397, -26.7934227],
            [-65.2101964, -26.7923501],
            [-65.2092952, -26.7923884],
            [-65.2125997, -26.7916605],
            [-65.2140159, -26.791354],
            [-65.2145309, -26.7909326],
            [-65.2152175, -26.7897451],
            [-65.215475, -26.7893237],
            [-65.2162045, -26.7881744],
            [-65.2168054, -26.7877147],
            [-65.2174491, -26.7873699],
            [-65.2180928, -26.78714],
            [-65.2186507, -26.78714],
            [-65.219509, -26.7871783],
            [-65.2202386, -26.7875614],
            [-65.2207536, -26.7878296],
            [-65.2216119, -26.7884042],
            [-65.2225648, -26.7903128],
            [-65.223071, -26.7922734],
            [-65.2238006, -26.7947635],
            [-65.2246444, -26.7975565],
            [-65.2265703, -26.8034039],
            [-65.2274055, -26.8081319],
            [-65.229181, -26.813265],
            [-65.229181, -26.813265]
          ]
        ]
      }
    },
    {
      "type": "Feature",
      "properties": { "nombre": "Distrito 5" },
      "geometry": {
        "type": "Polygon",
        "coordinates": [
          [
            [-65.2154214, -26.8158409],
            [-65.2127121, -26.8162062],
            [-65.2093218, -26.8169339],
            [-65.2037857, -26.8181595],
            [-65.2033565, -26.8178531],
            [-65.2031849, -26.8161296],
            [-65.2025841, -26.8142146],
            [-65.2021588, -26.8126486],
            [-65.2014131, -26.8095548],
            [-65.2006529, -26.8062861],
            [-65.1998529, -26.8029778],
            [-65.1992146, -26.8003759],
            [-65.1986509, -26.7977026],
            [-65.1977068, -26.7946151],
            [-65.1967047, -26.7946795],
            [-65.1958893, -26.7947561],
            [-65.1961897, -26.7937984],
            [-65.1968334, -26.7930323],
            [-65.1979492, -26.792496],
            [-65.1993654, -26.7922661],
            [-65.2013395, -26.7920746],
            [-65.2034424, -26.7917298],
            [-65.2062748, -26.791385],
            [-65.2083776, -26.7913467],
            [-65.2095363, -26.7914999],
            [-65.2101964, -26.7923501],
            [-65.2102659, -26.7930706],
            [-65.2108401, -26.7950316],
            [-65.210411, -26.7953764],
            [-65.2104376, -26.7959819],
            [-65.2115963, -26.8005021],
            [-65.21224, -26.8030685],
            [-65.2131841, -26.8070138],
            [-65.213785, -26.8097716],
            [-65.214574, -26.8127647],
            [-65.2154214, -26.8158409],
            [-65.2154214, -26.8158409]
          ]
        ]
      }
    }
  ]
}
